{"type": "FeatureCollection", "features": [ {"type": "Feature", "properties": {"norad_id": 29795, "name": "FENGYUN 1C DEB", "group": "fengyun-1c-debris", "lat": 34.07978057007771, "lon": -47.67755761869245, "alt_km": 931.6283270573304, "timestamp": "2025-12-23T07:45:09.675754+00:00", "meta": {"OBJECT_NAME": "FENGYUN 1C DEB", "OBJECT_ID": "1999-025CM", "EPOCH": "2025-12-22T19:44:00.756672", "MEAN_MOTION": 13.92914072, "ECCENTRICITY": 0.01111823, "INCLINATION": 98.8708, "RA_OF_ASC_NODE": 125.7776, "ARG_OF_PERICENTER": 248.3389, "MEAN_ANOMALY": 268.3974, "EPHEMERIS_TYPE": 0, "CLASSIFICATION_TYPE": "U", "NORAD_CAT_ID": 29795, "ELEMENT_SET_NO": 999, "REV_AT_EPOCH": 96205, "BSTAR": 0.00024811306, "MEAN_MOTION_DOT": 2.96e-06, "MEAN_MOTION_DDOT": 0}, "tle": {"line1": "1 29795U 99025CM  25356.82223098  .00000296  00000+0  24811-3 0  9997", "line2": "2 29795  98.8708 125.7776 0111182 248.3389 268.3974 13.92914072962059"}}, "geometry": {"type": "Point", "coordinates": [-47.67755761869245, 34.07978057007771]}}, {"type": "Feature", "properties": {"norad_id": 29796, "name": "FENGYUN 1C DEB", "group": "fengyun-1c-debris", "lat": 30.2840605534661, "lon": -125.69218762928759, "alt_km": 848.4517764069597, "timestamp": "2025-12-23T07:45:09.675765+00:00", "meta": {"OBJECT_NAME": "FENGYUN 1C DEB", "OBJECT_ID": "1999-025CN", "EPOCH": "2025-12-22T02:13:57.304704", "MEAN_MOTION": 14.12357767, "ECCENTRICITY": 0.00522978, "INCLINATION": 98.8638, "RA_OF_ASC_NODE": 47.863, "ARG_OF_PERICENTER": 241.1659, "MEAN_ANOMALY": 138.1824, "EPHEMERIS_TYPE": 0, "CLASSIFICATION_TYPE": "U", "NORAD_CAT_ID": 29796, "ELEMENT_SET_NO": 999, "REV_AT_EPOCH": 97193, "BSTAR": 0.00059657026, "MEAN_MOTION_DOT": 1.069e-05, "MEAN_MOTION_DDOT": 0}, "tle": {"line1": "1 29796U 99025CN  25356.09302436  .00001069  00000+0  59657-3 0  9996", "line2": "2 29796  98.8638  47.8630 0052297 241.1659 138.1824 14.12357767971937"}}, "geometry": {"type": "Point", "coordinates": [-125.69218762928759, 30.2840605534661]}}, {"type": "Feature", "properties": {"norad_id": 29798, "name": "FENGYUN 1C DEB", "group": "fengyun-1c-debris", "lat": 26.325098473720384, "lon": 56.742622189537926, "alt_km": 958.9809184854175, "timestamp": "2025-12-23T07:45:09.675774+00:00", "meta": {"OBJECT_NAME": "FENGYUN 1C DEB", "OBJECT_ID": "1999-025CQ", "EPOCH": "2025-12-22T02:44:26.663136", "MEAN_MOTION": 13.99609007, "ECCENTRICITY": 0.01120028, "INCLINATION": 99.2953, "RA_OF_ASC_NODE": 60.1634, "ARG_OF_PERICENTER": 246.9252, "MEAN_ANOMALY": 171.5917, "EPHEMERIS_TYPE": 0, "CLASSIFICATION_TYPE": "U", "NORAD_CAT_ID": 29798, "ELEMENT_SET_NO": 999, "REV_AT_EPOCH": 96056, "BSTAR": 0.0013240999, "MEAN_MOTION_DOT": 1.995e-05, "MEAN_MOTION_DDOT": 0}, "tle": {"line1": "1 29798U 99025CQ  25356.11419749  .00001995  00000+0  13241-2 0  9993", "line2": "2 29798  99.2953  60.1634 0112002 246.9252 171.5917 13.99609007960561"}}, "geometry": {"type": "Point", "coordinates": [56.742622189537926, 26.325098473720384]}}, {"type": "Feature", "properties": {"norad_id": 29800, "name": "FENGYUN 1C DEB", "group": "fengyun-1c-debris", "lat": 25.87798489321474, "lon": -158.01727862916218, "alt_km": 826.9664067348876, "timestamp": "2025-12-23T07:45:09.675785+00:00", "meta": {"OBJECT_NAME": "FENGYUN 1C DEB", "OBJECT_ID": "1999-025CS", "EPOCH": "2025-12-22T12:51:47.490048", "MEAN_MOTION": 13.98616469, "ECCENTRICITY": 0.01337951, "INCLINATION": 98.2903, "RA_OF_ASC_NODE": 17.2148, "ARG_OF_PERICENTER": 199.9411, "MEAN_ANOMALY": 314.1793, "EPHEMERIS_TYPE": 0, "CLASSIFICATION_TYPE": "U", "NORAD_CAT_ID": 29800, "ELEMENT_SET_NO": 999, "REV_AT_EPOCH": 95713, "BSTAR": 0.0015775914, "MEAN_MOTION_DOT": 2.406e-05, "MEAN_MOTION_DDOT": 0}, "tle": {"line1": "1 29800U 99025CS  25356.53596632  .00002406  00000+0  15776-2 0  9993", "line2": "2 29800  98.2903  17.2148 0133795 199.9411 314.1793 13.98616469957133"}}, "geometry": {"type": "Point", "coordinates": [-158.01727862916218, 25.87798489321474]}}, {"type": "Feature", "properties": {"norad_id": 29801, "name": "FENGYUN 1C DEB", "group": "fengyun-1c-debris", "lat": 58.272757219154684, "lon": -115.94095323924208, "alt_km": 839.8153914827726, "timestamp": "2025-12-23T07:45:09.675795+00:00", "meta": {"OBJECT_NAME": "FENGYUN 1C DEB", "OBJECT_ID": "1999-025CT", "EPOCH": "2025-12-22T16:33:33.363072", "MEAN_MOTION": 14.35907292, "ECCENTRICITY": 0.0102868, "INCLINATION": 98.7951, "RA_OF_ASC_NODE": 257.9151, "ARG_OF_PERICENTER": 237.7203, "MEAN_ANOMALY": 151.2186, "EPHEMERIS_TYPE": 0, "CLASSIFICATION_TYPE": "U", "NORAD_CAT_ID": 29801, "ELEMENT_SET_NO": 999, "REV_AT_EPOCH": 99084, "BSTAR": 0.00014357318, "MEAN_MOTION_DOT": 3.93e-06, "MEAN_MOTION_DDOT": 0}, "tle": {"line1": "1 29801U 99025CT  25356.68996948  .00000393  00000+0  14357-3 0  9992", "line2": "2 29801  98.7951 257.9151 0102868 237.7203 151.2186 14.35907292990846"}}, "geometry": {"type": "Point", "coordinates": [-115.94095323924208, 58.272757219154684]}}, {"type": "Feature", "properties": {"norad_id": 29802, "name": "FENGYUN 1C DEB", "group": "fengyun-1c-debris", "lat": -27.8115289098211, "lon": 111.48666119581294, "alt_km": 667.0684719643232, "timestamp": "2025-12-23T07:45:09.675805+00:00", "meta": {"OBJECT_NAME": "FENGYUN 1C DEB", "OBJECT_ID": "1999-025CU", "EPOCH": "2025-12-22T20:57:10.838304", "MEAN_MOTION": 14.62560344, "ECCENTRICITY": 0.00373487, "INCLINATION": 98.6194, "RA_OF_ASC_NODE": 106.4279, "ARG_OF_PERICENTER": 306.683, "MEAN_ANOMALY": 177.1834, "EPHEMERIS_TYPE": 0, "CLASSIFICATION_TYPE": "U", "NORAD_CAT_ID": 29802, "ELEMENT_SET_NO": 999, "REV_AT_EPOCH": 98621, "BSTAR": 0.0029173948, "MEAN_MOTION_DOT": 0.00014934, "MEAN_MOTION_DDOT": 0}, "tle": {"line1": "1 29802U 99025CU  25356.87304211  .00014934  00000+0  29174-2 0  9998", "line2": "2 29802  98.6194 106.4279 0037348 306.6830 177.1834 14.62560344986212"}}, "geometry": {"type": "Point", "coordinates": [111.48666119581294, -27.8115289098211]}}, {"type": "Feature", "properties": {"norad_id": 29804, "name": "FENGYUN 1C DEB", "group": "fengyun-1c-debris", "lat": -68.35212122832392, "lon": 162.2244369166105, "alt_km": 820.705425909412, "timestamp": "2025-12-23T07:45:09.675816+00:00", "meta": {"OBJECT_NAME": "FENGYUN 1C DEB", "OBJECT_ID": "1999-025CW", "EPOCH": "2025-12-22T12:29:18.784320", "MEAN_MOTION": 14.04323726, "ECCENTRICITY": 0.00969528, "INCLINATION": 98.8047, "RA_OF_ASC_NODE": 4.4322, "ARG_OF_PERICENTER": 274.2523, "MEAN_ANOMALY": 240.5472, "EPHEMERIS_TYPE": 0, "CLASSIFICATION_TYPE": "U", "NORAD_CAT_ID": 29804, "ELEMENT_SET_NO": 999, "REV_AT_EPOCH": 97031, "BSTAR": -4.6517613e-05, "MEAN_MOTION_DOT": -1.21e-06, "MEAN_MOTION_DDOT": 0}, "tle": {"line1": "1 29804U 99025CW  25356.52035630 -.00000121  00000+0 -46518-4 0  9996", "line2": "2 29804  98.8047   4.4322 0096952 274.2523 240.5472 14.04323726970318"}}, "geometry": {"type": "Point", "coordinates": [162.2244369166105, -68.35212122832392]}}, {"type": "Feature", "properties": {"norad_id": 29805, "name": "FENGYUN 1C DEB", "group": "fengyun-1c-debris", "lat": -68.2323165391254, "lon": 73.11961537082459, "alt_km": 988.6859337245787, "timestamp": "2025-12-23T07:45:09.675826+00:00", "meta": {"OBJECT_NAME": "FENGYUN 1C DEB", "OBJECT_ID": "1999-025CX", "EPOCH": "2025-12-22T09:21:33.026976", "MEAN_MOTION": 13.72660525, "ECCENTRICITY": 0.01883468, "INCLINATION": 99.4536, "RA_OF_ASC_NODE": 47.5382, "ARG_OF_PERICENTER": 204.6188, "MEAN_ANOMALY": 154.588, "EPHEMERIS_TYPE": 0, "CLASSIFICATION_TYPE": "U", "NORAD_CAT_ID": 29805, "ELEMENT_SET_NO": 999, "REV_AT_EPOCH": 94835, "BSTAR": 0.00016344227, "MEAN_MOTION_DOT": 1.26e-06, "MEAN_MOTION_DDOT": 0}, "tle": {"line1": "1 29805U 99025CX  25356.38996559  .00000126  00000+0  16344-3 0  9993", "line2": "2 29805  99.4536  47.5382 0188346 204.6188 154.5880 13.72660525948357"}}, "geometry": {"type": "Point", "coordinates": [73.11961537082459, -68.2323165391254]}}, {"type": "Feature", "properties": {"norad_id": 29806, "name": "FENGYUN 1C DEB", "group": "fengyun-1c-debris", "lat": -11.146930023908107, "lon": -168.9196427837269, "alt_km": 839.1881693995638, "timestamp": "2025-12-23T07:45:09.675836+00:00", "meta": {"OBJECT_NAME": "FENGYUN 1C DEB", "OBJECT_ID": "1999-025CY", "EPOCH": "2025-12-22T19:47:30.577344", "MEAN_MOTION": 14.12025203, "ECCENTRICITY": 0.00279199, "INCLINATION": 98.7123, "RA_OF_ASC_NODE": 12.3276, "ARG_OF_PERICENTER": 222.6046, "MEAN_ANOMALY": 316.7772, "EPHEMERIS_TYPE": 0, "CLASSIFICATION_TYPE": "U", "NORAD_CAT_ID": 29806, "ELEMENT_SET_NO": 999, "REV_AT_EPOCH": 97281, "BSTAR": 0.00044293614, "MEAN_MOTION_DOT": 7.71e-06, "MEAN_MOTION_DDOT": 0}, "tle": {"line1": "1 29806U 99025CY  25356.82465946  .00000771  00000+0  44294-3 0  9995", "line2": "2 29806  98.7123  12.3276 0027919 222.6046 316.7772 14.12025203972818"}}, "geometry": {"type": "Point", "coordinates": [-168.9196427837269, -11.146930023908107]}}, {"type": "Feature", "properties": {"norad_id": 29807, "name": "FENGYUN 1C DEB", "group": "fengyun-1c-debris", "lat": 51.84476787177391, "lon": -167.05198966140128, "alt_km": 916.1533775231874, "timestamp": "2025-12-23T07:45:09.675846+00:00", "meta": {"OBJECT_NAME": "FENGYUN 1C DEB", "OBJECT_ID": "1999-025CZ", "EPOCH": "2025-12-22T14:05:59.930880", "MEAN_MOTION": 14.08666587, "ECCENTRICITY": 0.00791576, "INCLINATION": 98.7547, "RA_OF_ASC_NODE": 0.9228, "ARG_OF_PERICENTER": 303.9135, "MEAN_ANOMALY": 55.4525, "EPHEMERIS_TYPE": 0, "CLASSIFICATION_TYPE": "U", "NORAD_CAT_ID": 29807, "ELEMENT_SET_NO": 999, "REV_AT_EPOCH": 97233, "BSTAR": 0.00027184166, "MEAN_MOTION_DOT": 4.38e-06, "MEAN_MOTION_DDOT": 0}, "tle": {"line1": "1 29807U 99025CZ  25356.58749920  .00000438  00000+0  27184-3 0  9995", "line2": "2 29807  98.7547   0.9228 0079157 303.9135  55.4525 14.08666587972333"}}, "geometry": {"type": "Point", "coordinates": [-167.05198966140128, 51.84476787177391]}}]}